1 42856U 17042AH  20281.84983741  .00007207  00000-0  17017-3 0  9991
2 42856  96.8766 143.2975 0006890 286.0875  73.9615 15.42112280181422
1 42856U 17042AH  20282.56361396  .00005157  00000-0  12228-3 0  9998
2 42856  96.8767 143.9707 0006853 282.8776  77.1706 15.42118428181535
1 42856U 17042AH  20282.88805720  .00004489  00000-0  10667-3 0  9999
2 42856  96.8767 144.2767 0006837 281.5600  78.4881 15.42120466181587
1 42856U 17042AH  20283.14761121  .00004393  00000-0  10442-3 0  9990
2 42856  96.8767 144.5216 0006834 280.2658  79.7820 15.42123017181622
1 42856U 17042AH  20283.53694195  .00004000  00000-0  95232-4 0  9995
2 42856  96.8768 144.8887 0006823 278.3926  81.6549 15.42125435181686
1 42856U 17042AH  20284.18582465  .00004362  00000-0  10368-3 0  9990
2 42856  96.8766 145.5007 0006779 275.1352  84.9123 15.42130953181780
1 42856U 17042AH  20284.38048896  .00004282  00000-0  10180-3 0  9990
2 42856  96.8765 145.6843 0006753 274.2053  85.8424 15.42132291181813
1 42856U 17042AH  20284.57515237  .00004607  00000-0  10938-3 0  9991
2 42856  96.8767 145.8679 0006815 273.3762  86.6707 15.42135388181846
1 42856U 17042AH  20285.41869298  .00004649  00000-0  11034-3 0  9998
2 42856  96.8765 146.6635 0006754 269.4714  90.5760 15.42143449181974
1 42856U 17042AH  20285.54846826  .00004675  00000-0  11093-3 0  9998
2 42856  96.8765 146.7859 0006744 268.8525  91.1951 15.42144727181996
1 42856U 17042AH  20285.87290604  .00004570  00000-0  10847-3 0  9991
2 42856  96.8765 147.0919 0006743 267.3861  92.6615 15.42147361182040
1 42856U 17042AH  20286.32711822  .00004146  00000-0  98563-4 0  9993
2 42856  96.8765 147.5203 0006757 265.3520  94.6957 15.42150129182111
1 42856U 17042AH  20286.84621716  .00003502  00000-0  83522-4 0  9996
2 42856  96.8764 148.0099 0006774 262.8116  97.2362 15.42152196182194
1 42856U 17042AH  20287.55997674  .00002853  00000-0  68381-4 0  9998
2 42856  96.8761 148.6828 0006764 259.7052 100.3434 15.42154894182306
1 42856U 17042AH  20287.68975105  .00002819  00000-0  67584-4 0  9993
2 42856  96.8761 148.8052 0006767 259.0821 100.9666 15.42155509182326
1 42856U 17042AH  20288.53328257  .00002651  00000-0  63647-4 0  9998
2 42856  96.8758 149.6007 0006789 255.0902 104.9595 15.42159541182450
1 42856U 17042AH  20288.92260389  .00002870  00000-0  68748-4 0  9992
2 42856  96.8757 149.9678 0006795 253.2368 106.8135 15.42162304182518
1 42856U 17042AH  20289.57147193  .00002813  00000-0  67427-4 0  9991
2 42856  96.8755 150.5798 0006812 250.2181 109.8333 15.42165463182610
1 42856U 17042AH  20290.15545165  .00002800  00000-0  67101-4 0  9993
2 42856  96.8753 151.1305 0006833 247.4517 112.6009 15.42168673182701
1 42856U 17042AH  20290.28522482  .00002813  00000-0  67401-4 0  9991
2 42856  96.8752 151.2529 0006839 246.8476 113.2052 15.42169350182722
1 42856U 17042AH  20290.67454401  .00002733  00000-0  65552-4 0  9995
2 42856  96.8751 151.6200 0006856 245.1056 114.9480 15.42171193182783
1 42856U 17042AH  20291.19363532  .00002772  00000-0  66437-4 0  9993
2 42856  96.8749 152.1095 0006865 242.6197 117.4353 15.42174061182869
1 42856U 17042AH  20291.32340796  .00002854  00000-0  68354-4 0  9996
2 42856  96.8749 152.2319 0006868 242.0159 118.0395 15.42174973182881
1 42856U 17042AH  20291.84249775  .00003084  00000-0  73714-4 0  9990
2 42856  96.8747 152.7214 0006887 239.6628 120.3939 15.42178747182964
1 42856U 17042AH  20292.42647253  .00003212  00000-0  76677-4 0  9992
2 42856  96.8746 153.2722 0006926 236.9136 123.1448 15.42182568183054
1 42856U 17042AH  20292.55624486  .00003012  00000-0  72026-4 0  9991
2 42856  96.8745 153.3945 0006931 236.3230 123.7358 15.42182613183075
1 42856U 17042AH  20292.68601679  .00003064  00000-0  73229-4 0  9997
2 42856  96.8745 153.5169 0006941 235.7456 124.3135 15.42183550183092
1 42856U 17042AH  20293.14021769  .00003349  00000-0  79861-4 0  9999
2 42856  96.8744 153.9452 0006964 233.6719 126.3887 15.42187388183161
1 42856U 17042AH  20293.91884613  .00003687  00000-0  87732-4 0  9990
2 42856  96.8744 154.6795 0007016 230.2605 129.8026 15.42193415183289
1 42856U 17042AH  20294.30815965  .00003854  00000-0  91602-4 0  9995
2 42856  96.8743 155.0467 0007036 228.6251 131.4394 15.42196281183347
1 42856U 17042AH  20294.76235762  .00003990  00000-0  94764-4 0  9999
2 42856  96.8743 155.4750 0007070 226.6479 133.4181 15.42199736183416
1 42856U 17042AH  20295.15166889  .00004569  00000-0  10824-3 0  9993
2 42856  96.8741 155.8421 0007095 224.7014 135.3663 15.42203543183478
1 42856U 17042AH  20296.12493625  .00010008  00000-0  23463-3 0  9990
2 42856  96.8740 156.7600 0007153 220.4178 139.6540 15.42228360183627
1 42856U 17042AH  20296.18982008  .00010021  00000-0  23492-3 0  9991
2 42856  96.8740 156.8214 0007203 219.9731 140.0988 15.42229218183639
1 42856U 17042AH  20297.42261136  .00007183  00000-0  16886-3 0  9995
2 42856  96.8738 157.9842 0007307 215.2350 144.8416 15.42245298183821
1 42856U 17042AH  20297.87679534  .00008031  00000-0  18852-3 0  9997
2 42856  96.8741 158.4123 0007321 213.2114 146.8676 15.42251333183899
1 42856U 17042AH  20298.13632703  .00009819  00000-0  22999-3 0  9996
2 42856  96.8740 158.6567 0007291 211.7357 148.3453 15.42258477183931
1 42856U 17042AH  20298.85003275  .00012540  00000-0  29294-3 0  9991
2 42856  96.8741 159.3299 0007372 208.7114 151.3730 15.42278041184043
1 42856U 17042AH  20299.17444268  .00010655  00000-0  24920-3 0  9994
2 42856  96.8743 159.6359 0007398 207.6042 152.4815 15.42282392184096
1 42856U 17042AH  20299.36908842  .00009906  00000-0  23179-3 0  9990
2 42856  96.8742 159.8195 0007430 206.7309 153.3558 15.42284733184127
1 42856U 17042AH  20299.88814191  .00009105  00000-0  21317-3 0  9993
2 42856  96.8742 160.3087 0007470 204.3136 155.7761 15.42292651184209
1 42856U 17042AH  20300.34231251  .00007541  00000-0  17687-3 0  9994
2 42856  96.8741 160.7371 0007529 202.6885 157.4032 15.42295610184270
1 42856U 17042AH  20300.86136293  .00007519  00000-0  17631-3 0  9995
2 42856  96.8742 161.2267 0007587 200.5695 159.5250 15.42301034184353
1 42856U 17042AH  20301.38041160  .00005890  00000-0  13852-3 0  9992
2 42856  96.8738 161.7160 0007671 198.2983 161.7991 15.42303768184434
1 42856U 17042AH  20301.57505439  .00005463  00000-0  12859-3 0  9999
2 42856  96.8738 161.8994 0007663 197.5344 162.5641 15.42305638184466
1 42856U 17042AH  20301.89945837  .00005106  00000-0  12030-3 0  9999
2 42856  96.8737 162.2052 0007701 196.2620 163.8382 15.42308183184511
1 42856U 17042AH  20302.54826192  .00005474  00000-0  12879-3 0  9993
2 42856  96.8736 162.8171 0007777 193.7888 166.3149 15.42317830184618
1 42856U 17042AH  20302.61313943  .00006523  00000-0  15310-3 0  9995
2 42856  96.8738 162.8784 0007766 193.6957 166.4083 15.42323009184628
1 42856U 17042AH  20303.58633193  .00007328  00000-0  17164-3 0  9997
2 42856  96.8733 163.7957 0007870 189.7417 170.3681 15.42343645184770
1 42856U 17042AH  20303.84584901  .00007674  00000-0  17963-3 0  9999
2 42856  96.8731 164.0407 0007846 188.4780 171.6338 15.42347659184811
1 42856U 17042AH  20304.17024424  .00007076  00000-0  16575-3 0  9999
2 42856  96.8729 164.3465 0007929 187.4408 172.6724 15.42351459184861
1 42856U 17042AH  20304.75415547  .00004701  00000-0  11073-3 0  9993
2 42856  96.8727 164.8972 0008013 185.1590 174.9578 15.42352498184955
1 42856U 17042AH  20305.59757220  .00008714  00000-0  20351-3 0  9990
2 42856  96.8724 165.6925 0008095 181.9408 178.1810 15.42374480185086
1 42856U 17042AH  20305.92196039  .00011625  00000-0  27069-3 0  9990
2 42856  96.8723 165.9984 0008118 180.5917 179.5323 15.42385908185136
1 42856U 17042AH  20306.57073509  .00009769  00000-0  22774-3 0  9992
2 42856  96.8720 166.6101 0008200 178.1192 182.0089 15.42394927185232
1 42856U 17042AH  20306.76536670  .00009506  00000-0  22163-3 0  9997
2 42856  96.8720 166.7937 0008230 177.4663 182.6628 15.42397607185264
1 42856U 17042AH  20307.08975189  .00009337  00000-0  21769-3 0  9998
2 42856  96.8718 167.0996 0008271 176.5288 183.6020 15.42402275185319
1 42856U 17042AH  20307.60876774  .00006515  00000-0  15247-3 0  9995
2 42856  96.8717 167.5889 0008316 174.5901 185.5439 15.42403396185392
1 42856U 17042AH  20307.86827462  .00006252  00000-0  14639-3 0  9995
2 42856  96.8717 167.8337 0008348 173.4653 186.6706 15.42406228185431
1 42856U 17042AH  20308.19265747  .00005951  00000-0  13940-3 0  9993
2 42856  96.8717 168.1396 0008391 172.3329 187.8050 15.42409548185484
1 42856U 17042AH  20308.58191738  .00004167  00000-0  98153-4 0  9992
2 42856  96.8716 168.5067 0008456 170.9114 189.2289 15.42409396185548
1 42856U 17042AH  20309.16580486  .00004027  00000-0  94905-4 0  9995
2 42856  96.8716 169.0573 0008525 168.8452 191.2988 15.42414081185630
1 42856U 17042AH  20309.55506230  .00003774  00000-0  89039-4 0  9993
2 42856  96.8716 169.4244 0008566 167.4132 192.7332 15.42416782185699
1 42856U 17042AH  20309.68481460  .00003770  00000-0  88943-4 0  9993
2 42856  96.8716 169.5468 0008586 166.9490 193.1982 15.42417864185712
1 42856U 17042AH  20310.20382330  .00003431  00000-0  81101-4 0  9992
2 42856  96.8716 170.0361 0008654 165.0913 195.0592 15.42420931185792
1 42856U 17042AH  20310.59307904  .00003649  00000-0  86142-4 0  9999
2 42856  96.8716 170.4032 0008695 163.7928 196.3601 15.42424136185850
1 42856U 17042AH  20311.17696092  .00004186  00000-0  98529-4 0  9992
2 42856  96.8716 170.9538 0008765 161.7812 198.3753 15.42429792185947
1 42856U 17042AH  20311.76084104  .00004593  00000-0  10790-3 0  9997
2 42856  96.8717 171.5043 0008807 159.6818 200.4783 15.42435241186030
1 42856U 17042AH  20312.40958975  .00012762  00000-0  29618-3 0  9991
2 42856  96.8714 172.1163 0008935 157.3781 202.7863 15.42456325186134
1 42856U 17042AH  20312.73396124  .00012761  00000-0  29607-3 0  9996
2 42856  96.8714 172.4221 0008945 156.0910 204.0756 15.42465234186183
1 42856U 17042AH  20316.10737982  .00005756  00000+0  13444-3 0  9999
2 42856  96.8716 175.6030 0009281 144.8938 215.2924 15.42501110186700
